{
  "norad_id": 66664,
  "name": "SOYUZ-MS 28",
  "history": [
    {
      "epoch": "2026-03-28T20:59:21.130368Z",
      "apogee_km": 424.9994113407529,
      "perigee_km": 416.54292935847207,
      "latitude_deg": -1.388692204224055e-05,
      "longitude_deg": -163.6098859807378,
      "height_km": 423.359128408171,
      "semi_major_axis_km": 6798.908170349612,
      "eccentricity": 0.0006219,
      "inclination_deg": 51.6344,
      "raan_deg": 337.5169,
      "arg_perigee_deg": 244.1555,
      "mean_anomaly_deg": 115.8792,
      "mean_motion_rev_day": 15.48616916
    },
    {
      "epoch": "2026-03-29T03:11:03.043104Z",
      "apogee_km": 424.97494925259707,
      "perigee_km": 416.5239334060243,
      "latitude_deg": 4.760801642111521e-06,
      "longitude_deg": 101.93487370327634,
      "height_km": 423.26550424440273,
      "semi_major_axis_km": 6798.88644132931,
      "eccentricity": 0.0006215,
      "inclination_deg": 51.6344,
      "raan_deg": 336.2407,
      "arg_perigee_deg": 245.2164,
      "mean_anomaly_deg": 114.8178,
      "mean_motion_rev_day": 15.4862434
    },
    {
      "epoch": "2026-03-30T03:57:49.771296Z",
      "apogee_km": 424.8788230008804,
      "perigee_km": 416.47277085875703,
      "latitude_deg": -3.128970830977535e-05,
      "longitude_deg": 84.11808122601376,
      "height_km": 422.8678520976391,
      "semi_major_axis_km": 6798.812796929818,
      "eccentricity": 0.0006182,
      "inclination_deg": 51.6344,
      "raan_deg": 331.1363,
      "arg_perigee_deg": 249.8594,
      "mean_anomaly_deg": 110.1729,
      "mean_motion_rev_day": 15.48649502
    },
    {
      "epoch": "2026-03-30T03:57:49.772160Z",
      "apogee_km": 424.87895604855566,
      "perigee_km": 416.4726319575393,
      "latitude_deg": 4.929857962530724e-05,
      "longitude_deg": 84.1181410557102,
      "height_km": 422.86788575587127,
      "semi_major_axis_km": 6798.812794003047,
      "eccentricity": 0.00061822,
      "inclination_deg": 51.6344,
      "raan_deg": 331.1363,
      "arg_perigee_deg": 249.8595,
      "mean_anomaly_deg": 110.1729,
      "mean_motion_rev_day": 15.48649503
    },
    {
      "epoch": "2026-03-30T08:36:35.879904Z",
      "apogee_km": 424.88954006507356,
      "perigee_km": 416.4421634977916,
      "latitude_deg": -8.341676578094634e-08,
      "longitude_deg": 13.277776573274165,
      "height_km": 422.8302722526374,
      "semi_major_axis_km": 6798.802851781432,
      "eccentricity": 0.00062124,
      "inclination_deg": 51.6343,
      "raan_deg": 330.1789,
      "arg_perigee_deg": 250.3608,
      "mean_anomaly_deg": 109.671,
      "mean_motion_rev_day": 15.486529
    },
    {
      "epoch": "2026-03-30T22:32:53.905920Z",
      "apogee_km": 424.8488379559549,
      "perigee_km": 416.40110425637704,
      "latitude_deg": 3.15776708079537e-05,
      "longitude_deg": 160.7584664620567,
      "height_km": 422.6041529815777,
      "semi_major_axis_km": 6798.761971106166,
      "eccentricity": 0.00062127,
      "inclination_deg": 51.6341,
      "raan_deg": 327.3071,
      "arg_perigee_deg": 253.009,
      "mean_anomaly_deg": 107.0218,
      "mean_motion_rev_day": 15.48666868
    },
    {
      "epoch": "2026-03-31T20:13:47.748864Z",
      "apogee_km": 424.7971901050787,
      "perigee_km": 416.33960059326546,
      "latitude_deg": 6.978077191030449e-05,
      "longitude_deg": -169.8232804277853,
      "height_km": 422.2949216444308,
      "semi_major_axis_km": 6798.705395349172,
      "eccentricity": 0.000622,
      "inclination_deg": 51.6336,
      "raan_deg": 322.8401,
      "arg_perigee_deg": 256.5772,
      "mean_anomaly_deg": 103.4524,
      "mean_motion_rev_day": 15.48686199
    },
    {
      "epoch": "2026-04-01T21:00:31.001184Z",
      "apogee_km": 424.7519316346734,
      "perigee_km": 416.27537400073925,
      "latitude_deg": -4.317702646938943e-05,
      "longitude_deg": 172.37328967087882,
      "height_km": 421.91271464486306,
      "semi_major_axis_km": 6798.650652817706,
      "eccentricity": 0.0006234,
      "inclination_deg": 51.6332,
      "raan_deg": 317.7346,
      "arg_perigee_deg": 261.121,
      "mean_anomaly_deg": 98.9072,
      "mean_motion_rev_day": 15.48704904
    },
    {
      "epoch": "2026-04-02T20:14:17.913696Z",
      "apogee_km": 424.6823717855941,
      "perigee_km": 416.2031830871756,
      "latitude_deg": 2.560108054962889e-05,
      "longitude_deg": 178.18676596409404,
      "height_km": 421.5730437894443,
      "semi_major_axis_km": 6798.579777436385,
      "eccentricity": 0.0006236,
      "inclination_deg": 51.6328,
      "raan_deg": 312.9475,
      "arg_perigee_deg": 264.7845,
      "mean_anomaly_deg": 95.2432,
      "mean_motion_rev_day": 15.48729122
    },
    {
      "epoch": "2026-04-02T20:14:17.914560Z",
      "apogee_km": 424.6822358139989,
      "perigee_km": 416.20331905877174,
      "latitude_deg": 2.3788845934758867e-05,
      "longitude_deg": 178.186760927569,
      "height_km": 421.5730314301477,
      "semi_major_axis_km": 6798.579777436385,
      "eccentricity": 0.00062358,
      "inclination_deg": 51.6328,
      "raan_deg": 312.9475,
      "arg_perigee_deg": 264.7845,
      "mean_anomaly_deg": 95.2432,
      "mean_motion_rev_day": 15.48729122
    },
    {
      "epoch": "2026-04-03T21:00:58.615488Z",
      "apogee_km": 424.62105543383495,
      "perigee_km": 416.1188426433664,
      "latitude_deg": 1.1425873029097652e-05,
      "longitude_deg": 160.39356886739873,
      "height_km": 421.1952067723391,
      "semi_major_axis_km": 6798.5069490386,
      "eccentricity": 0.0006253,
      "inclination_deg": 51.6327,
      "raan_deg": 307.8415,
      "arg_perigee_deg": 268.9169,
      "mean_anomaly_deg": 91.1103,
      "mean_motion_rev_day": 15.48754008
    },
    {
      "epoch": "2026-04-04T20:14:42.961056Z",
      "apogee_km": 424.6132847456129,
      "perigee_km": 416.0118863299904,
      "latitude_deg": -2.066785776185302e-06,
      "longitude_deg": 166.21780372341146,
      "height_km": 420.86930755788404,
      "semi_major_axis_km": 6798.449585537801,
      "eccentricity": 0.0006326,
      "inclination_deg": 51.6331,
      "raan_deg": 303.0545,
      "arg_perigee_deg": 272.5089,
      "mean_anomaly_deg": 87.5175,
      "mean_motion_rev_day": 15.4877361
    },
    {
      "epoch": "2026-04-05T13:16:46.804800Z",
      "apogee_km": 424.5914025416978,
      "perigee_km": 415.9555177024149,
      "latitude_deg": 2.145387267521149e-06,
      "longitude_deg": -93.50908769262324,
      "height_km": 420.655192706522,
      "semi_major_axis_km": 6798.410460122056,
      "eccentricity": 0.00063514,
      "inclination_deg": 51.6328,
      "raan_deg": 299.5432,
      "arg_perigee_deg": 274.8255,
      "mean_anomaly_deg": 85.2008,
      "mean_motion_rev_day": 15.4878698
    },
    {
      "epoch": "2026-04-05T19:28:26.281920Z",
      "apogee_km": 424.58117968911574,
      "perigee_km": 415.9404160879985,
      "latitude_deg": -3.0997881732676504e-05,
      "longitude_deg": 172.04600692442295,
      "height_km": 420.5300697926521,
      "semi_major_axis_km": 6798.397797888557,
      "eccentricity": 0.0006355,
      "inclination_deg": 51.6329,
      "raan_deg": 298.2672,
      "arg_perigee_deg": 276.3215,
      "mean_anomaly_deg": 83.7049,
      "mean_motion_rev_day": 15.48791307
    },
    {
      "epoch": "2026-04-06T00:07:10.853472Z",
      "apogee_km": 424.5694017019259,
      "perigee_km": 415.9357188959293,
      "latitude_deg": 6.030921013171541e-05,
      "longitude_deg": 101.21187094821127,
      "height_km": 420.4588664804624,
      "semi_major_axis_km": 6798.389560298927,
      "eccentricity": 0.00063498,
      "inclination_deg": 51.6327,
      "raan_deg": 297.3095,
      "arg_perigee_deg": 277.1679,
      "mean_anomaly_deg": 82.8588,
      "mean_motion_rev_day": 15.48794122
    },
    {
      "epoch": "2026-04-07T19:28:45.281280Z",
      "apogee_km": 424.48139540571447,
      "perigee_km": 415.86249932224655,
      "latitude_deg": 3.1984006283139772e-06,
      "longitude_deg": 160.10165794982694,
      "height_km": 419.7904283659393,
      "semi_major_axis_km": 6798.30894736398,
      "eccentricity": 0.0006339,
      "inclination_deg": 51.6331,
      "raan_deg": 288.3735,
      "arg_perigee_deg": 285.1531,
      "mean_anomaly_deg": 74.8756,
      "mean_motion_rev_day": 15.4882167
    },
    {
      "epoch": "2026-04-08T12:30:47.352960Z",
      "apogee_km": 424.4603713450615,
      "perigee_km": 415.8228864159237,
      "latitude_deg": -8.101527971951175e-06,
      "longitude_deg": -99.61674288497699,
      "height_km": 419.5635390564265,
      "semi_major_axis_km": 6798.278628880492,
      "eccentricity": 0.00063527,
      "inclination_deg": 51.633,
      "raan_deg": 284.8633,
      "arg_perigee_deg": 287.8392,
      "mean_anomaly_deg": 72.1903,
      "mean_motion_rev_day": 15.48832031
    },
    {
      "epoch": "2026-04-09T19:29:00.944736Z",
      "apogee_km": 424.4549768435172,
      "perigee_km": 415.71790008040534,
      "latitude_deg": -4.7315511726231935e-06,
      "longitude_deg": 148.17191266456996,
      "height_km": 419.1121208932942,
      "semi_major_axis_km": 6798.223438461961,
      "eccentricity": 0.0006426,
      "inclination_deg": 51.6329,
      "raan_deg": 278.4805,
      "arg_perigee_deg": 293.1753,
      "mean_anomaly_deg": 66.8558,
      "mean_motion_rev_day": 15.48850892
    },
    {
      "epoch": "2026-04-10T12:31:01.824096Z",
      "apogee_km": 424.4136144516906,
      "perigee_km": 415.69561352591154,
      "latitude_deg": 8.702889290784082e-07,
      "longitude_deg": -111.54229289179332,
      "height_km": 418.9080342211102,
      "semi_major_axis_km": 6798.191613988801,
      "eccentricity": 0.0006412,
      "inclination_deg": 51.6328,
      "raan_deg": 274.9695,
      "arg_perigee_deg": 295.7162,
      "mean_anomaly_deg": 64.3164,
      "mean_motion_rev_day": 15.48861768
    }
  ]
}